GLOBALSTAR M023         
1 25621U 99004A   25117.71106786 -.00000132  00000+0 -15626-3 0  9990
2 25621  52.0104 207.1432 0009299  16.7104 148.2323 12.62505023209355
GLOBALSTAR M040         
1 25622U 99004B   25117.66241941 -.00000051  00000+0  29312-3 0  9994
2 25622  51.9909 211.3707 0000457 245.5004 259.9043 12.62008677208875
GLOBALSTAR M036         
1 25623U 99004C   25117.74726486 -.00000001  00000+0  11963-2 0  9993
2 25623  52.0003  13.2701 0010817 319.6061  78.4995 11.86595824172996
GLOBALSTAR M038         
1 25624U 99004D   25117.67373328 -.00000053  00000+0  34411-3 0  9990
2 25624  51.9966 217.0447 0001268 302.9643 205.2214 12.32525793196142
GLOBALSTAR M022         
1 25649U 99012A   25117.85796564 -.00000102  00000+0 -17936-3 0  9996
2 25649  52.0046  67.7156 0002809  71.0090 305.1808 12.02499476170325
GLOBALSTAR M041         
1 25650U 99012B   25117.93503806 -.00000032  00000+0  68578-3 0  9991
2 25650  52.0027 307.4336 0001452 187.7138 172.3676 11.96672196172267
GLOBALSTAR M046         
1 25651U 99012C   25117.75377954 -.00000091  00000+0 -24776-4 0  9994
2 25651  52.0089  19.9756 0002306 135.9884 239.2609 12.09408466177568
GLOBALSTAR M037         
1 25652U 99012D   25117.89167045 -.00000058  00000+0  25400-3 0  9994
2 25652  52.0023 337.2320 0002850  79.4851 293.8408 12.62443996204920
